start=new Date('2022-02-15T00:00:00.000Z').valueOf();
sats=[{"ELEMENT_SET_NO":"999","MEAN_ELEMENT_THEORY":"SGP4","INCLINATION":"53.0553","ARG_OF_PERICENTER":"71.8881","DECAY_DATE":null,"TLE_LINE2":"2 44754  53.0553   8.8893 0001260  71.8881 288.2245 15.06385071125066","GP_ID":"195965014","RA_OF_ASC_NODE":"8.8893","SITE":"AFETR","APOAPSIS":"548.132","MEAN_MOTION":"15.06385071","REF_FRAME":"TEME","EPOCH":"2022-02-14T14:48:09.030816","TIME_SYSTEM":"UTC","COUNTRY_CODE":"US","EPHEMERIS_TYPE":"0","MEAN_ANOMALY":"288.2245","NORAD_CAT_ID":"44754","CLASSIFICATION_TYPE":"U","OBJECT_ID":"2019-074AT","RCS_SIZE":"LARGE","ECCENTRICITY":"0.00012600","TLE_LINE1":"1 44754U 19074AT  22045.61677119  .00002315  00000-0  17430-3 0  9995","REV_AT_EPOCH":"12506","LAUNCH_DATE":"2019-11-11","MEAN_MOTION_DOT":"0.00002315","PERIAPSIS":"546.387","OBJECT_NAME":"STARLINK-1049","FILE":"3300727","MEAN_MOTION_DDOT":"0.0000000000000","CENTER_NAME":"EARTH","OBJECT_TYPE":"PAYLOAD","SEMIMAJOR_AXIS":"6925.394","PERIOD":"95.593","BSTAR":"0.00017430000000"},{"TLE_LINE1":"1 44755U 19074AU  22045.48167691  .01469718  00000-0  47169-2 0  9996","LAUNCH_DATE":"2019-11-11","REV_AT_EPOCH":"12481","MEAN_MOTION_DOT":"0.01469718","PERIAPSIS":"306.497","OBJECT_ID":"2019-074AU","RCS_SIZE":"LARGE","ECCENTRICITY":"0.00024920","BSTAR":"0.00471690000000","OBJECT_NAME":"STARLINK-1050","FILE":"3300523","MEAN_MOTION_DDOT":"0.0000000000000","OBJECT_TYPE":"PAYLOAD","CENTER_NAME":"EARTH","PERIOD":"90.686","SEMIMAJOR_AXIS":"6686.299","DECAY_DATE":null,"TLE_LINE2":"2 44755  53.0461  38.9466 0002492  51.6630 308.4618 15.87903542124810","GP_ID":"195940613","RA_OF_ASC_NODE":"38.9466","SITE":"AFETR","APOAPSIS":"309.830","REF_FRAME":"TEME","MEAN_MOTION":"15.87903542","ELEMENT_SET_NO":"999","MEAN_ELEMENT_THEORY":"SGP4","INCLINATION":"53.0461","ARG_OF_PERICENTER":"51.6630","NORAD_CAT_ID":"44755","CLASSIFICATION_TYPE":"U","EPOCH":"2022-02-14T11:33:36.885024","COUNTRY_CODE":"US","EPHEMERIS_TYPE":"0","TIME_SYSTEM":"UTC","MEAN_ANOMALY":"308.4618"},{"TLE_LINE2":"2 44757  53.0576  28.5787 0001447  63.4023 296.7114 15.06409559124793","RA_OF_ASC_NODE":"28.5787","GP_ID":"195964014","DECAY_DATE":null,"REF_FRAME":"TEME","MEAN_MOTION":"15.06409559","SITE":"AFETR","APOAPSIS":"548.186","ELEMENT_SET_NO":"999","ARG_OF_PERICENTER":"63.4023","MEAN_ELEMENT_THEORY":"SGP4","INCLINATION":"53.0576","NORAD_CAT_ID":"44757","CLASSIFICATION_TYPE":"U","MEAN_ANOMALY":"296.7114","EPOCH":"2022-02-14T16:26:19.732704","TIME_SYSTEM":"UTC","COUNTRY_CODE":"US","EPHEMERIS_TYPE":"0","REV_AT_EPOCH":"12479","LAUNCH_DATE":"2019-11-11","TLE_LINE1":"1 44757U 19074AW  22045.68495061  .00001138  00000-0  95270-4 0  9990","PERIAPSIS":"546.182","MEAN_MOTION_DOT":"0.00001138","ECCENTRICITY":"0.00014470","OBJECT_ID":"2019-074AW","RCS_SIZE":"LARGE","BSTAR":"0.00009527000000","FILE":"3300727","OBJECT_NAME":"STARLINK-1052","CENTER_NAME":"EARTH","OBJECT_TYPE":"PAYLOAD","SEMIMAJOR_AXIS":"6925.319","PERIOD":"95.592","MEAN_MOTION_DDOT":"0.0000000000000"},{"BSTAR":"0.00003276700000","MEAN_MOTION_DDOT":"0.0000000000000","CENTER_NAME":"EARTH","OBJECT_TYPE":"PAYLOAD","SEMIMAJOR_AXIS":"6925.350","PERIOD":"95.592","OBJECT_NAME":"STARLINK-1053","FILE":"3300727","MEAN_MOTION_DOT":"0.00000206","PERIAPSIS":"545.950","TLE_LINE1":"1 44758U 19074AX  22045.69323228  .00000206  00000-0  32767-4 0  9994","REV_AT_EPOCH":"12452","LAUNCH_DATE":"2019-11-11","OBJECT_ID":"2019-074AX","RCS_SIZE":"LARGE","ECCENTRICITY":"0.00018260","CLASSIFICATION_TYPE":"U","NORAD_CAT_ID":"44758","EPOCH":"2022-02-14T16:38:15.268992","EPHEMERIS_TYPE":"0","COUNTRY_CODE":"US","TIME_SYSTEM":"UTC","MEAN_ANOMALY":"302.3573","SITE":"AFETR","APOAPSIS":"548.480","REF_FRAME":"TEME","MEAN_MOTION":"15.06399541","DECAY_DATE":null,"TLE_LINE2":"2 44758  53.0568  48.5376 0001826  57.7593 302.3573 15.06399541124523","GP_ID":"195964264","RA_OF_ASC_NODE":"48.5376","MEAN_ELEMENT_THEORY":"SGP4","INCLINATION":"53.0568","ARG_OF_PERICENTER":"57.7593","ELEMENT_SET_NO":"999"},{"OBJECT_ID":"2019-074AY","RCS_SIZE":"LARGE","ECCENTRICITY":"0.00015500","MEAN_MOTION_DOT":"0.00000187","PERIAPSIS":"546.143","TLE_LINE1":"1 44759U 19074AY  22045.35138393  .00000187  00000-0  31468-4 0  9990","LAUNCH_DATE":"2019-11-11","REV_AT_EPOCH":"12211","MEAN_MOTION_DDOT":"0.0000000000000","CENTER_NAME":"EARTH","OBJECT_TYPE":"PAYLOAD","SEMIMAJOR_AXIS":"6925.351","PERIOD":"95.592","OBJECT_NAME":"STARLINK-1054","FILE":"3300472","BSTAR":"0.00003146800000","MEAN_ELEMENT_THEORY":"SGP4","INCLINATION":"53.0561","ARG_OF_PERICENTER":"64.4152","ELEMENT_SET_NO":"999","SITE":"AFETR","APOAPSIS":"548.290","MEAN_MOTION":"15.06399082","REF_FRAME":"TEME","DECAY_DATE":null,"TLE_LINE2":"2 44759  53.0561  50.0851 0001550  64.4152 295.6998 15.06399082122111","GP_ID":"195934530","RA_OF_ASC_NODE":"50.0851","EPOCH":"2022-02-14T08:25:59.571552","TIME_SYSTEM":"UTC","COUNTRY_CODE":"US","EPHEMERIS_TYPE":"0","MEAN_ANOMALY":"295.6998","CLASSIFICATION_TYPE":"U","NORAD_CAT_ID":"44759"},{"NORAD_CAT_ID":"44760","CLASSIFICATION_TYPE":"U","MEAN_ANOMALY":"306.8110","EPOCH":"2022-02-14T17:38:00.949344","COUNTRY_CODE":"US","TIME_SYSTEM":"UTC","EPHEMERIS_TYPE":"0","TLE_LINE2":"2 44760  53.0560  48.3447 0001885  53.3052 306.8110 15.06394703124534","GP_ID":"195965765","RA_OF_ASC_NODE":"48.3447","DECAY_DATE":null,"MEAN_MOTION":"15.06394703","REF_FRAME":"TEME","SITE":"AFETR","APOAPSIS":"548.535","ELEMENT_SET_NO":"999","ARG_OF_PERICENTER":"53.3052","MEAN_ELEMENT_THEORY":"SGP4","INCLINATION":"53.0560","BSTAR":"0.00001813900000","FILE":"3300727","OBJECT_NAME":"STARLINK-1055","OBJECT_TYPE":"PAYLOAD","CENTER_NAME":"EARTH","PERIOD":"95.592","SEMIMAJOR_AXIS":"6925.365","MEAN_MOTION_DDOT":"0.0000000000000","LAUNCH_DATE":"2019-11-11","REV_AT_EPOCH":"12453","TLE_LINE1":"1 44760U 19074AZ  22045.73473321 -.00000012  00000-0  18139-4 0  9995","PERIAPSIS":"545.924","MEAN_MOTION_DOT":"-0.00000012","ECCENTRICITY":"0.00018850","OBJECT_ID":"2019-074AZ","RCS_SIZE":"LARGE"},{"ELEMENT_SET_NO":"999","MEAN_ELEMENT_THEORY":"SGP4","INCLINATION":"53.0553","ARG_OF_PERICENTER":"56.8305","DECAY_DATE":null,"TLE_LINE2":"2 44761  53.0553  49.4924 0001803  56.8305 303.2857 15.06392961124496","RA_OF_ASC_NODE":"49.4924","GP_ID":"195935029","SITE":"AFETR","APOAPSIS":"548.484","MEAN_MOTION":"15.06392961","REF_FRAME":"TEME","EPOCH":"2022-02-14T11:31:46.724160","COUNTRY_CODE":"US","EPHEMERIS_TYPE":"0","TIME_SYSTEM":"UTC","MEAN_ANOMALY":"303.2857","NORAD_CAT_ID":"44761","CLASSIFICATION_TYPE":"U","OBJECT_ID":"2019-074BA","RCS_SIZE":"LARGE","ECCENTRICITY":"0.00018030","TLE_LINE1":"1 44761U 19074BA  22045.48040190 -.00001557  00000-0 -85631-4 0  9999","REV_AT_EPOCH":"12449","LAUNCH_DATE":"2019-11-11","MEAN_MOTION_DOT":"-0.00001557","PERIAPSIS":"545.986","OBJECT_NAME":"STARLINK-1056","FILE":"3300472","MEAN_MOTION_DDOT":"0.0000000000000","CENTER_NAME":"EARTH","OBJECT_TYPE":"PAYLOAD","PERIOD":"95.593","SEMIMAJOR_AXIS":"6925.370","BSTAR":"-0.00008563100000"},{"TLE_LINE1":"1 44762U 19074BB  22045.68128917  .00000205  00000-0  32655-4 0  9991","REV_AT_EPOCH":"12479","LAUNCH_DATE":"2019-11-11","MEAN_MOTION_DOT":"0.00000205","PERIAPSIS":"546.137","OBJECT_ID":"2019-074BB","RCS_SIZE":"LARGE","ECCENTRICITY":"0.00016000","BSTAR":"0.00003265500000","OBJECT_NAME":"STARLINK-1057","FILE":"3300727","MEAN_MOTION_DDOT":"0.0000000000000","CENTER_NAME":"EARTH","OBJECT_TYPE":"PAYLOAD","PERIOD":"95.593","SEMIMAJOR_AXIS":"6925.380","DECAY_DATE":null,"TLE_LINE2":"2 44762  53.0548  28.5795 0001600  60.3988 299.7160 15.06389739124795","RA_OF_ASC_NODE":"28.5795","GP_ID":"195964765","SITE":"AFETR","APOAPSIS":"548.353","REF_FRAME":"TEME","MEAN_MOTION":"15.06389739","ELEMENT_SET_NO":"999","MEAN_ELEMENT_THEORY":"SGP4","INCLINATION":"53.0548","ARG_OF_PERICENTER":"60.3988","NORAD_CAT_ID":"44762","CLASSIFICATION_TYPE":"U","EPOCH":"2022-02-14T16:21:03.384288","EPHEMERIS_TYPE":"0","COUNTRY_CODE":"US","TIME_SYSTEM":"UTC","MEAN_ANOMALY":"299.7160"},{"BSTAR":"0.00003818700000","OBJECT_NAME":"STARLINK-1058","FILE":"3300727","MEAN_MOTION_DDOT":"0.0000000000000","CENTER_NAME":"EARTH","OBJECT_TYPE":"PAYLOAD","PERIOD":"95.592","SEMIMAJOR_AXIS":"6925.355","TLE_LINE1":"1 44763U 19074BC  22045.70155181  .00000287  00000-0  38187-4 0  9994","REV_AT_EPOCH":"12452","LAUNCH_DATE":"2019-11-11","MEAN_MOTION_DOT":"0.00000287","PERIAPSIS":"546.019","OBJECT_ID":"2019-074BC","RCS_SIZE":"LARGE","ECCENTRICITY":"0.00017340","NORAD_CAT_ID":"44763","CLASSIFICATION_TYPE":"U","EPOCH":"2022-02-14T16:50:14.076384","COUNTRY_CODE":"US","TIME_SYSTEM":"UTC","EPHEMERIS_TYPE":"0","MEAN_ANOMALY":"309.5023","DECAY_DATE":null,"TLE_LINE2":"2 44763  53.0559  48.5107 0001734  50.6119 309.5023 15.06398006124529","RA_OF_ASC_NODE":"48.5107","GP_ID":"195965015","SITE":"AFETR","APOAPSIS":"548.421","REF_FRAME":"TEME","MEAN_MOTION":"15.06398006","ELEMENT_SET_NO":"999","MEAN_ELEMENT_THEORY":"SGP4","INCLINATION":"53.0559","ARG_OF_PERICENTER":"50.6119"},{"MEAN_ANOMALY":"295.2753","EPHEMERIS_TYPE":"0","COUNTRY_CODE":"US","TIME_SYSTEM":"UTC","EPOCH":"2022-02-14T16:15:45.051264","NORAD_CAT_ID":"44764","CLASSIFICATION_TYPE":"U","ELEMENT_SET_NO":"999","ARG_OF_PERICENTER":"64.8393","INCLINATION":"53.0530","MEAN_ELEMENT_THEORY":"SGP4","RA_OF_ASC_NODE":"28.6098","GP_ID":"195965265","TLE_LINE2":"2 44764  53.0530  28.6098 0001513  64.8393 295.2753 15.06378619124791","DECAY_DATE":null,"MEAN_MOTION":"15.06378619","REF_FRAME":"TEME","APOAPSIS":"548.327","SITE":"AFETR","FILE":"3300727","OBJECT_NAME":"STARLINK-1059","PERIOD":"95.593","SEMIMAJOR_AXIS":"6925.414","OBJECT_TYPE":"PAYLOAD","CENTER_NAME":"EARTH","MEAN_MOTION_DDOT":"0.0000000000000","BSTAR":"-0.00001302900000","ECCENTRICITY":"0.00015130","RCS_SIZE":"LARGE","OBJECT_ID":"2019-074BD","LAUNCH_DATE":"2019-11-11","REV_AT_EPOCH":"12479","TLE_LINE1":"1 44764U 19074BD  22045.67760476 -.00000475  00000-0 -13029-4 0  9999","PERIAPSIS":"546.231","MEAN_MOTION_DOT":"-0.00000475"}];
